postal_code,latitude,longitude,city,state
01067,51.0532766,13.7268903,Dresden,Sachsen
01069,51.0375913,13.7352463,Dresden,Sachsen
01097,51.0691516,13.7438029,Dresden,Sachsen
01099,51.0697026,13.7615108,Dresden,Sachsen
01108,51.146272,13.7985853,Dresden,Sachsen
01109,51.1166326,13.7601569,Dresden,Sachsen
01127,51.0788341,13.7271341,Dresden,Sachsen
01129,51.0923902,13.7185282,Dresden,Sachsen
01139,51.0835459,13.695772,Dresden,Sachsen
01156,51.0644587,13.6306342,Dresden,Sachsen
01157,51.0616723,13.6709015,Dresden,Sachsen
01159,51.0410534,13.6959947,Dresden,Spostal_code,city,state,latitude,longitude
01067,Dresden,Sachsen,51.05327759922441,13.726886930351602
01069,Dresden,Sachsen,51.03759899692725,13.735237063714415
01097,Dresden,Sachsen,51.06915158959952,13.743802908487746
01099,Dresden,Sachsen,51.06970203959495,13.76150814989727
01108,Dresden,Sachsen,51.14627201074417,13.798585291193307
01109,Dresden,Sachsen,51.116625087863135,13.760128700064557
01127,Dresden,Sachsen,51.0788315795539,13.727137514604355
01129,Dresden,Sachsen,51.0923902098024,13.718528177373111
01139,Dresden,Sachsen,51.08354590758786,13.695771997803515
01156,Dresden,Sachsen,51.064458694461536,13.630634238188033
01157,Dresden,Sachsen,51.061669914504776,13.670912968376067
01159,Dresden,Sachsen,51.041053392503485,13.695994664923292
01169,Dresden,Sachsen,51.04352839747676,13.66656029435591
01187,Dresden,Sachsen,51.02842669186992,13.707290414001807
01189,Dresden,Sachsen,51.01516833488238,13.701406479288584
01217,Dresden,Sachsen,51.02002885061311,13.746046960295985
01219,Dresden,Sachsen,51.01889187510219,13.765113242883686
01237,Dresden,Sachsen,51.01741037838394,13.795912044158518
01239,Dresden,Sachsen,50.99962641799881,13.790349555476615
01257,Dresden,Sachsen,51.00054273441247,13.815908303517187
01259,Dresden,Sachsen,50.99942581089217,13.846100444718116
01277,Dresden,Sachsen,51.03733451314925,13.798808842669295
01279,Dresden,Sachsen,51.02556552752887,13.828276404110856
01307,Dresden,Sachsen,51.052730500932945,13.769442054868806
01309,Dresden,Sachsen,51.04722509228119,13.788476729979324
01324,Dresden,Sachsen,51.06091740315591,13.841759148798868
01326,Dresden,Sachsen,51.03760318132422,13.842572675831354
01328,Dresden,Sachsen,51.04557872353693,13.883767889419884
10115,Berlin,Berlin,52.531745236581195,13.387828914358975
10117,Berlin,Brandenburg,52.517090635459866,13.388082563476875
10119,Berlin,Brandenburg,52.530080098506666,13.405475834453334
10178,Berlin,Brandenburg,52.522332300256544,13.409027805695228
10179,Berlin,Brandenburg,52.512011445152794,13.415867921970495
10243,Berlin,Brandenburg,52.513181543205285,13.440039195002065
10245,Berlin,Brandenburg,52.50471387000734,13.46195567503671
10247,Berlin,Brandenburg,52.51589607745416,13.465294349406689
10249,Berlin,Brandenburg,52.52307662683864,13.444380619484084
10315,Berlin,Brandenburg,52.509303108604655,13.513004558465116
10317,Berlin,Berlin,52.50219935039193,13.488117808398655
10318,Berlin,Berlin,52.48449578562761,13.527479414050058
10319,Berlin,Berlin,52.49756513252657,13.511211902007085
10365,Berlin,Berlin,52.51711275901639,13.494127138744503
10367,Berlin,Berlin,52.52199066925021,13.481414239005897
10369,Berlin,Berlin,52.52928020187377,13.468284606804735
10405,Berlin,Berlin,52.53464060574661,13.423960365113121
10407,Berlin,Berlin,52.533166563134465,13.442778142965272
10409,Berlin,Berlin,52.54478742188679,13.439063784025157
10435,Berlin,Berlin,52.53830436781345,13.411502171559633
10437,Berlin,Berlin,52.5447648521965,13.41576024747284
10439,Berlin,Berlin,52.551407999062135,13.415404010785464
10551,Berlin,Berlin,52.52977475786667,13.336878732711112
10553,Berlin,Berlin,52.529192778370785,13.324021528370787
10555,Berlin,Berlin,52.52221112758007,13.335494871352314
10557,Berlin,Berlin,52.52420141848502,13.358224980836631
10559,Berlin,Berlin,52.529815464758144,13.349582742744323
10585,Berlin,Berlin,52.51540412427273,13.305065265818182
10587,Berlin,Berlin,52.51885565764023,13.317455146808511
10589,Berlin,Berlin,52.526165269723954,13.304634512199465
10623,Berlin,Berlin,52.507108455605724,13.325586997893152
10625,Berlin,Berlin,52.50900234421296,13.31411197037037
10627,Berlin,Berlin,52.508386293821296,13.30368736311787
10629,Berlin,Berlin,52.502866070048896,13.30939807408313
10707,Berlin,Berlin,52.497464228614454,13.313830395883535
10709,Berlin,Berlin,52.49433412814179,13.30313153802363
10711,Berlin,Berlin,52.49778643023256,13.292726088482834
10713,Berlin,Berlin,52.485610964696086,13.314820819233972
10715,Berlin,Berlin,52.48271595143256,13.328349433962265
10717,Berlin,Berlin,52.49062721781737,13.327213658685968
10719,Berlin,Berlin,52.49931658551992,13.32582793148688
10777,Berlin,Berlin,52.49758255489362,13.34426386606383
10779,Berlin,Berlin,52.49199013264659,13.339625386370841
10781,Berlin,Berlin,52.49352355158151,13.352070169586375
10783,Berlin,Berlin,52.49613464987469,13.362196388596491
10785,Berlin,Berlin,52.50447748183069,13.363706543289744
10787,Berlin,Berlin,52.50430664390978,13.346161373533835
10789,Berlin,Berlin,52.50164723515483,13.33760119125683
10823,Berlin,Berlin,52.487487422597404,13.351333531948052
10825,Berlin,Berlin,52.484697177277276,13.341790262662663
10827,Berlin,Berlin,52.4839660844166,13.353929421221613
10829,Berlin,Berlin,52.48255958047945,13.362483088013699
10961,Berlin,Berlin,52.49229030107239,13.395875507975871
10963,Berlin,Berlin,52.50044863683188,13.38243273654033
10965,Berlin,Berlin,52.4881244875,13.385707815421195
10967,Berlin,Berlin,52.491195700385504,13.417003201696222
10969,Berlin,Berlin,52.50298040066869,13.401252704863222
10997,Berlin,Berlin,52.50066868885899,13.435298936598493
10999,Berlin,Berlin,52.49795950188994,13.424369186381321
12043,Berlin,Berlin,52.47988177470356,13.437170000079051
12045,Berlin,Berlin,52.48499966682298,13.439041829308325
12047,Berlin,Berlin,52.490386616008536,13.428303586125935
12049,Berlin,Berlin,52.477610103195964,13.42357239158957
12051,Berlin,Berlin,52.46709805575834,13.432821528508496
12053,Berlin,Berlin,52.477539893727275,13.432053833181818
12055,Berlin,Berlin,52.47224636736641,13.447584244465649
12057,Berlin,Berlin,52.46657113518654,13.466002039868325
12059,Berlin,Berlin,52.48170160789981,13.44945602177264
12099,Berlin,Berlin,52.46164573682573,13.399633294553942
12101,Berlin,Berlin,52.47775621954218,13.379402345103857
12103,Berlin,Berlin,52.46208317327791,13.376193647980998
12105,Berlin,Berlin,52.45036152574439,13.373335836326156
12107,Berlin,Berlin,52.430018696165725,13.393574606176015
12109,Berlin,Berlin,52.44575013998073,13.398138780346821
12157,Berlin,Berlin,52.46485178811321,13.342504647044025
12159,Berlin,Berlin,52.47331157657714,13.336694050905683
12161,Berlin,Berlin,52.47027945597382,13.327356512765958
12163,Berlin,Berlin,52.46230976512605,13.319856529878617
12165,Berlin,Berlin,52.45574567699758,13.317007119249395
12167,Berlin,Berlin,52.4490255415625,13.333465139125
12169,Berlin,Berlin,52.45434883944752,13.342197620662983
12203,Berlin,Berlin,52.4440438094691,13.309328255071316
12205,Berlin,Berlin,52.43304472870813,13.294799016682616
12207,Berlin,Berlin,52.42248345998669,13.312624810086552
12209,Berlin,Berlin,52.417659318904185,13.329668718732071
12247,Berlin,Berlin,52.439358632041774,13.347082585107817
12249,Berlin,Berlin,52.425387762073555,13.351284680357143
12277,Berlin,Berlin,52.416535502590015,13.373143718098547
12279,Berlin,Berlin,52.41126756033718,13.3533611527063
12305,Berlin,Berlin,52.40419049455581,13.402185846402196
12307,Berlin,Berlin,52.38795514875465,13.394043866790724
12309,Berlin,Berlin,52.3914532673705,13.417063637182448
12347,Berlin,Berlin,52.45156632174423,13.430517721509581
12349,Berlin,Berlin,52.42134892223513,13.419270937894982
12351,Berlin,Berlin,52.433280983812196,13.456261275157672
12353,Berlin,Berlin,52.42215093574572,13.45558494430318
12355,Berlin,Berlin,52.411509524181895,13.494610739849836
12357,Berlin,Berlin,52.430224898617425,13.488443065336758
12359,Berlin,Berlin,52.44659423738999,13.450064606494688
12435,Berlin,Berlin,52.488108472943445,13.457936640938303
12437,Berlin,Berlin,52.461645401293374,13.48184176741325
12439,Berlin,Berlin,52.452471148177395,13.527466102612394
12459,Berlin,Berlin,52.46346028218794,13.52142598807854
12487,Berlin,Berlin,52.44232801639845,13.505751676581577
12489,Berlin,Berlin,52.43738038559849,13.544397910997027
12524,Berlin,Berlin,52.4123797093341,13.54167504206033
12526,Berlin,Berlin,52.39819937561231,13.570489353129581
12527,Berlin,Berlin,52.39493437594493,13.613451739794817
12529,Schönefeld,Berlin,52.38598772743981,13.490037898309135
12555,Berlin,Berlin,52.46000221191923,13.578528294835598
12557,Berlin,Berlin,52.431946816745956,13.585175729400571
12559,Berlin,Berlin,52.42102038853824,13.652037714968221
12587,Berlin,Berlin,52.45300193149097,13.622750258263684
12589,Berlin,Berlin,52.4346380092542,13.7063285340492
12619,Berlin,Berlin,52.523194316919735,13.589002396420824
12621,Berlin,Berlin,52.504775503306966,13.588013778303722
12623,Berlin,Berlin,52.50200825599098,13.615955195608551
12627,Berlin,Berlin,52.53646367716995,13.610964503209338
12629,Berlin,Berlin,52.54183035998014,13.590914255014896
12679,Berlin,Berlin,52.54869929760174,13.563737956031979
12681,Berlin,Berlin,52.52809781970031,13.53528557659762
12683,Berlin,Berlin,52.50801160045128,13.559340169958974
12685,Berlin,Berlin,52.53958466426858,13.557805953093526
12687,Berlin,Berlin,52.55667276554622,13.565022060864347
12689,Berlin,Berlin,52.56787218738532,13.566019240137615
13051,Berlin,Berlin,52.56924538985801,13.495154889452332
13053,Berlin,Berlin,52.55187157756961,13.50456520949779
13055,Berlin,Berlin,52.53986312554371,13.496340554712152
13057,Berlin,Berlin,52.56936735219479,13.541405994855968
13059,Berlin,Berlin,52.577162836209745,13.520206830429396
13086,Berlin,Berlin,52.5557282734888,13.44657766007978
13088,Berlin,Berlin,52.561390657475286,13.467454999052718
13089,Berlin,Berlin,52.57056350478619,13.442261452295018
13125,Berlin,Berlin,52.61939062093259,13.485861648479474
13127,Berlin,Berlin,52.60413138490381,13.430184296641668
13129,Berlin,Berlin,52.59326683921425,13.454297698584675
13156,Berlin,Berlin,52.58317917799537,13.400706226489786
13158,Berlin,Berlin,52.592880174457925,13.38176122281679
13159,Berlin,Berlin,52.623049612987934,13.393550958268277
13187,Berlin,Berlin,52.569308519269214,13.408758486177181
13189,Berlin,Berlin,52.56186834043716,13.420810879462659
13347,Berlin,Berlin,52.54796035309091,13.365734974969698
13349,Berlin,Berlin,52.55771044252652,13.345479329990358
13351,Berlin,Berlin,52.553006434605145,13.338519944897959
13353,Berlin,Berlin,52.54345008787548,13.353358616002184
13355,Berlin,Berlin,52.54180134923077,13.391632366882591
13357,Berlin,Berlin,52.55098209051724,13.3812901352122
13359,Berlin,Berlin,52.55963340666223,13.385303946702198
13403,Berlin,Berlin,52.57359523827031,13.3223352912465
13405,Berlin,Berlin,52.563236575,13.313706604666667
13407,Berlin,Berlin,52.570280880807665,13.351698390216486
13409,Berlin,Berlin,52.567436401306935,13.370883247762377
13435,Berlin,Berlin,52.60100991627119,13.342301899915254
13437,Berlin,Berlin,52.59040394204366,13.329978955520405
13439,Berlin,Berlin,52.59544036152557,13.353431308633697
13465,Berlin,Berlin,52.63507680551948,13.287686718522728
13467,Berlin,Berlin,52.61743796515559,13.307372775777948
13469,Berlin,Berlin,52.610870839805564,13.335203575801367
13503,Berlin,Berlin,52.6130191676812,13.2340991136492
13505,Berlin,Berlin,52.58229517332751,13.228037034455618
13507,Berlin,Berlin,52.58027226096124,13.281113913023257
13509,Berlin,Berlin,52.591421847651006,13.29936285693026
13581,Berlin,Berlin,52.530547658499756,13.179129105406723
13583,Berlin,Berlin,52.54325719125632,13.18147565416475
13585,Berlin,Berlin,52.54729237439096,13.20261254402852
13587,Berlin,Berlin,52.56596850303899,13.208947810206423
13589,Berlin,Berlin,52.5551812534632,13.169732732792207
13591,Berlin,Berlin,52.53699594513378,13.143824259732432
13593,Berlin,Berlin,52.51634492901207,13.169107464193116
13595,Berlin,Berlin,52.515015740939106,13.193424685546589
13597,Berlin,Berlin,52.53204020270985,13.209791565565101
13599,Berlin,Berlin,52.54747192839239,13.23365765622299
13627,Berlin,Berlin,52.538739597417845,13.2936808799687
13629,Berlin,Berlin,52.54347192220881,13.264557865359082
14050,Berlin,Berlin,52.5164069632806,13.270377264113238
14052,Berlin,Berlin,52.51568154202601,13.256657379329226
14053,Berlin,Berlin,52.51416878863636,13.23759785340909
14055,Berlin,Berlin,52.50351208311476,13.248915735245902
14057,Berlin,Berlin,52.50693162446184,13.289789753033268
14059,Berlin,Berlin,52.51621825430791,13.289245830367232
14089,Berlin,Berlin,52.46454843239821,13.140551458763655
14109,Berlin,Berlin,52.41608680409091,13.154695360454546
14129,Berlin,Berlin,52.431924603288934,13.209329135036695
14163,Berlin,Berlin,52.43859089321256,13.239153259178744
14165,Berlin,Berlin,52.419764462373905,13.252198514189644
14167,Berlin,Berlin,52.42337741483637,13.275169992048486
14169,Berlin,Berlin,52.44471028782816,13.262631965499867
14193,Berlin,Berlin,52.48574965981524,13.276873124579346
14195,Berlin,Berlin,52.45732189741541,13.285376541423872
14197,Berlin,Berlin,52.472844255070825,13.313482597677053
14199,Berlin,Berlin,52.47591328650628,13.292761705753138
20095,Hamburg,Hamburg,53.55097772736842,9.999655113082706
20097,Hamburg,Hamburg,53.548063985064935,10.019959442207792
20099,Hamburg,Hamburg,53.55631030319927,10.01252756106033
20144,Hamburg,Hamburg,53.574426103,9.9777894985
20146,Hamburg,Hamburg,53.56832469492063,9.981241452486772
20148,Hamburg,Hamburg,53.5684221232859,9.99387168137128
20149,Hamburg,Hamburg,53.578796453144655,9.990887299161425
20249,Hamburg,Hamburg,53.58837102595597,9.988409295365006
20251,Hamburg,Hamburg,53.59032364528925,9.979976821212121
20253,Hamburg,Hamburg,53.579654206193226,9.96787765342692
20255,Hamburg,Hamburg,53.57891940812013,9.951736635595106
20257,Hamburg,Hamburg,53.575677849221556,9.94450010251497
20259,Hamburg,Hamburg,53.57189959286385,9.957977049295774
20354,Hamburg,Hamburg,53.555885154901965,9.990352235620914
20355,Hamburg,Hamburg,53.55336704623853,9.980755656330276
20357,Hamburg,Hamburg,53.56293031773002,9.966499699932841
20359,Hamburg,Hamburg,53.550592404311004,9.962139965588914
20457,Hamburg,Hamburg,53.543173537540454,9.994362926537217
20459,Hamburg,Hamburg,53.54731423739496,9.979495397058823
20535,Hamburg,Hamburg,53.55908906557047,10.048092132885905
20537,Hamburg,Hamburg,53.55113910058043,10.050180971227197
20539,Hamburg,Hamburg,53.53073075681063,10.036174531312293
21029,Hamburg,Hamburg,53.48686740414883,10.22331406206783
21031,Hamburg,Hamburg,53.50779993301423,10.19536722747736
21033,Hamburg,Hamburg,53.50109797636508,10.17952698605022
21035,Hamburg,Hamburg,53.48236292061574,10.171392538094311
21037,Hamburg,Hamburg,53.436118940751086,10.148829363531968
21039,Fahrendorf,Schleswig-Holstein,53.451735268258176,10.255167759770115
21039,Börnsen,Schleswig-Holstein,53.451735268258176,10.255167759770115
21039,Escheburg,Schleswig-Holstein,53.451735268258176,10.255167759770115
21039,Hamburg,Schleswig-Holstein,53.451735268258176,10.255167759770115
21073,Hamburg,Hamburg,53.45775476727476,9.973228419322414
21075,Hamburg,Hamburg,53.46134712079618,9.949145476592356
21077,Hamburg,Hamburg,53.441451994426835,9.959755748573691
21079,Hamburg,Hamburg,53.44745689460146,9.987952523912353
21107,Hamburg,Hamburg,53.50703765089474,9.98995752005263
21109,Hamburg,Hamburg,53.49367902042809,10.016815495080737
21129,Hamburg,Hamburg,53.525998305271145,9.83608133909746
21147,Hamburg,Hamburg,53.47813986954783,9.876475825499845
21149,Hamburg,Hamburg,53.467145452928705,9.850597754359926
80331,München,Bayern,48.136083761803384,11.573627627113337
80333,München,Bayern,48.14536612152875,11.569423639621318
80335,München,Bayern,48.14571625445829,11.555951104889742
80336,München,Bayern,48.13427666875664,11.55673658639745
80337,München,Bayern,48.12723211518481,11.557916235464536
80339,München,Bayern,48.13622737236842,11.538686547727274
80469,München,Bayern,48.12927739048207,11.572264544252164
80538,München,Bayern,48.142053411170686,11.590281414119751
80539,München,Bayern,48.14456306827458,11.58220180575139
80634,München,Bayern,48.15063170790735,11.531265566054312
80636,München,Bayern,48.152090792801246,11.54305707965571
80637,München,Bayern,48.162256545184135,11.536462616076488
80638,München,Bayern,48.16327015451328,11.51772748578171
80639,München,Bayern,48.15238289704383,11.513366236442405
80686,München,Bayern,48.13259571449024,11.508875315097614
80687,München,Bayern,48.14097188059623,11.502032555020921
80689,München,Bayern,48.13114350839295,11.489567241744634
80796,München,Bayern,48.161656210859725,11.57085260576923
80797,München,Bayern,48.162610797649826,11.559736051586368
80798,München,Bayern,48.155179314561664,11.565934354086181
80799,München,Bayern,48.15223495464247,11.575249639381003
80801,München,Bayern,48.158845079473686,11.578766059342106
80802,München,Bayern,48.16068361822107,11.588090095164075
80803,München,Bayern,48.16457729859402,11.580471700175748
80804,München,Bayern,48.171967144753474,11.57999028659924
80805,München,Bayern,48.174077435873706,11.599417591453458
80807,München,Bayern,48.183309389221556,11.584882948742514
80809,München,Bayern,48.17924998265306,11.561003905393585
80933,München,Bayern,48.21189112072072,11.557517416441442
80935,München,Bayern,48.19975869869281,11.552605945866974
80937,München,Bayern,48.203918205581395,11.576087938087856
80939,München,Bayern,48.20072594440969,11.607811690409175
80992,München,Bayern,48.17768230496669,11.51730272901272
80993,München,Bayern,48.18583366433225,11.516262551085775
80995,München,Bayern,48.21166008237004,11.525600223345172
80997,München,Bayern,48.183562997616136,11.488029563875306
80999,München,Bayern,48.18822038122421,11.456385974025675
81241,München,Bayern,48.143611296231285,11.46506856277749
81243,München,Bayern,48.14562796791,11.436083356808762
81245,München,Bayern,48.15774929270452,11.444300298633301
81247,München,Bayern,48.1650849697318,11.474052548084291
81248,München,Bayern,48.146269839999995,11.406911012941178
81249,München,Bayern,48.16441577648364,11.409821450665557
81369,München,Bayern,48.110971552365186,11.529434412346264
81371,München,Bayern,48.11682836491228,11.546983322417153
81373,München,Bayern,48.12168411615692,11.532138282114362
81375,München,Bayern,48.11752428504937,11.487540385801598
81377,München,Bayern,48.11250692296719,11.49845088767475
81379,München,Bayern,48.09909797409932,11.525953143281402
81475,München,Bayern,48.08651569263592,11.480863358293186
81476,München,Bayern,48.08788030224138,11.494472994913792
81477,München,Bayern,48.086475611270494,11.509972619262294
81479,München,Bayern,48.07862534395349,11.522701815271319
81539,München,Bayern,48.11118273058527,11.588458161233481
81541,München,Bayern,48.12021610552933,11.584935443695214
81543,München,Bayern,48.11416240927419,11.569677510161291
81545,München,Bayern,48.088584419920316,11.558840838725098
81547,München,Bayern,48.09939382334385,11.576924554637223
81549,München,Bayern,48.09723239538938,11.602326894924449
81667,München,Bayern,48.130460898179265,11.598301965406163
81669,München,Bayern,48.11983043008197,11.60097150885246
81671,München,Bayern,48.12237300564872,11.617662030361872
81673,München,Bayern,48.12886551261972,11.632864549183099
81675,München,Bayern,48.139179230555555,11.604203271212121
81677,München,Bayern,48.14084058706383,11.622536954382978
81679,München,Bayern,48.14833962664399,11.609394620294784
81735,München,Bayern,48.108437466473994,11.639963939739884
81737,München,Bayern,48.09950083950414,11.631703608595043
81739,München,Bayern,48.08541450577991,11.661748116330136
81825,München,Bayern,48.11765648075594,11.66228663371266
81827,München,Bayern,48.10952757821677,11.693223062003915
81829,München,Bayern,48.132090730364126,11.677901572223893
81925,München,Bayern,48.1617373354521,11.621775249955236
81927,München,Bayern,48.15771434529524,11.637199939885715
81929,München,Bayern,48.151903663534185,11.65189494661255
50667,Köln,Nordrhein-Westfalen,50.938417068816065,6.954030799048627
50668,Köln,Nordrhein-Westfalen,50.94874535272373,6.959121424773023
50670,Köln,Nordrhein-Westfalen,50.94916176664798,6.951231385706278
50672,Köln,Nordrhein-Westfalen,50.940784790260224,6.9389391620074345
50674,Köln,Nordrhein-Westfalen,50.93225979312227,6.93653664639738
50676,Köln,Nordrhein-Westfalen,50.93166721804949,6.950391168413391
50677,Köln,Nordrhein-Westfalen,50.921810938442,6.951998345300592
50678,Köln,Nordrhein-Westfalen,50.92346764839895,6.960862636692913
50679,Köln,Nordrhein-Westfalen,50.935027812670455,6.976797085568182
50733,Köln,Nordrhein-Westfalen,50.96378626863831,6.952768201359175
50735,Köln,Nordrhein-Westfalen,50.97814414471141,6.964900610577188
50737,Köln,Nordrhein-Westfalen,50.99030937215406,6.932397172665304
50739,Köln,Nordrhein-Westfalen,50.97838638117243,6.927533268471086
50765,Köln,Nordrhein-Westfalen,51.01995631641888,6.872655375091575
50767,Köln,Nordrhein-Westfalen,51.00356363478842,6.886493245812918
50769,Köln,Nordrhein-Westfalen,51.04486575769405,6.88754271639789
50823,Köln,Nordrhein-Westfalen,50.94974225501695,6.9233302354237285
50825,Köln,Nordrhein-Westfalen,50.95674981944923,6.914138170940906
50827,Köln,Nordrhein-Westfalen,50.965465644078776,6.900463175563617
50829,Köln,Nordrhein-Westfalen,50.968338363261694,6.875534445360303
50858,Köln,Nordrhein-Westfalen,50.93353525264293,6.853288391434735
50859,Köln,Nordrhein-Westfalen,50.95439313311017,6.83108973910639
50931,Köln,Nordrhein-Westfalen,50.93064689155273,6.916274816308594
50933,Köln,Nordrhein-Westfalen,50.94158738160621,6.881497878151986
50935,Köln,Nordrhein-Westfalen,50.92130049570969,6.905473004326064
50937,Köln,Nordrhein-Westfalen,50.91764897145422,6.9222369922082585
50939,Köln,Nordrhein-Westfalen,50.911353335687735,6.927559685068155
50968,Köln,Nordrhein-Westfalen,50.90386300348324,6.9637869611905385
50969,Köln,Nordrhein-Westfalen,50.90777279670782,6.941090650514403
50996,Köln,Nordrhein-Westfalen,50.88540053438569,6.9925543107077095
50997,Köln,Nordrhein-Westfalen,50.8660062466027,6.951956285842961
50999,Köln,Nordrhein-Westfalen,50.87154700079457,7.014591689476745
51061,Köln,Nordrhein-Westfalen,50.98819819355751,7.01510450660616
51063,Köln,Nordrhein-Westfalen,50.96832694627778,7.005527589083333
51065,Köln,Nordrhein-Westfalen,50.95594554756711,7.010761280662751
51067,Köln,Nordrhein-Westfalen,50.96772285609872,7.042890114712861
51069,Köln,Nordrhein-Westfalen,50.982997343261125,7.063409848676294
51103,Köln,Nordrhein-Westfalen,50.940728942722174,7.012775828668438
51105,Köln,Nordrhein-Westfalen,50.92141095354912,6.995455041567292
51107,Köln,Nordrhein-Westfalen,50.92491152835188,7.063749628334217
51109,Köln,Nordrhein-Westfalen,50.942915651819504,7.064023307387191
51143,Köln,Nordrhein-Westfalen,50.86541955707196,7.039289584222499
51145,Köln,Nordrhein-Westfalen,50.88564109481987,7.077965743295673
51147,Köln,Nordrhein-Westfalen,50.860271005843195,7.096565933247041
51149,Köln,Nordrhein-Westfalen,50.899858895880875,7.0413368734762045
60306,Frankfurt am Main,Hessen,50.11603336666667,8.670190866666667
60308,Frankfurt am Main,Hessen,50.1123391,8.65272105
60310,Frankfurt am Main,Hessen,50.110676225,8.67286295
60311,Frankfurt am Main,Hessen,50.11126683044776,8.683009157313434
60312,Frankfurt am Main,Hessen,50.1114757,8.67314535
60313,Frankfurt am Main,Hessen,50.115311430715124,8.682265456506448
60314,Frankfurt am Main,Hessen,50.113768169341895,8.71270118988764
60315,Frankfurt am Main,Hessen,50.11247025,8.67377095
60316,Frankfurt am Main,Hessen,50.120757500596206,8.69654158910569
60318,Frankfurt am Main,Hessen,50.12511276539792,8.6864616361015
60320,Frankfurt am Main,Hessen,50.138979821667476,8.672354728986914
60322,Frankfurt am Main,Hessen,50.12507290968509,8.676154558526441
60323,Frankfurt am Main,Hessen,50.12204472680302,8.66561746393972
60325,Frankfurt am Main,Hessen,50.11540685512104,8.659730755307264
60326,Frankfurt am Main,Hessen,50.10251458466667,8.630090879333334
60327,Frankfurt am Main,Hessen,50.104043699373044,8.652385849634273
60329,Frankfurt am Main,Hessen,50.10731976606498,8.666265363297233
60385,Frankfurt am Main,Hessen,50.12534983370184,8.71067890120603
60386,Frankfurt am Main,Hessen,50.12682342374569,8.754966384105707
60388,Frankfurt am Main,Hessen,50.15053412237154,8.753670151594202
60389,Frankfurt am Main,Hessen,50.13824493270127,8.711647261976049
60431,Frankfurt am Main,Hessen,50.145600632977995,8.654674408837689
60433,Frankfurt am Main,Hessen,50.16036961112828,8.668474829855745
60435,Frankfurt am Main,Hessen,50.15428056559878,8.691156279735571
60437,Frankfurt am Main,Hessen,50.19241884304734,8.675608796997041
60438,Frankfurt am Main,Hessen,50.17835726449481,8.631485508215297
60439,Frankfurt am Main,Hessen,50.160433877442586,8.633846782619697
60486,Frankfurt am Main,Hessen,50.11625858514344,8.636418797694672
60487,Frankfurt am Main,Hessen,50.12558626174201,8.641378683186328
60488,Frankfurt am Main,Hessen,50.141539129057186,8.615544942065945
60489,Frankfurt am Main,Hessen,50.12519215989484,8.608769869694072
60528,Frankfurt am Main,Hessen,50.0836158216853,8.643779246365815
60529,Frankfurt am Main,Hessen,50.08401872304774,8.591507670692382
60549,Frankfurt am Main,Hessen,50.0492093184466,8.579589115533981
60594,Frankfurt am Main,Hessen,50.10391804675746,8.688454276134891
60596,Frankfurt am Main,Hessen,50.09757858299368,8.673625850316235
60598,Frankfurt am Main,Hessen,50.090129043860536,8.68155830697322
60599,Frankfurt am Main,Hessen,50.09601198770913,8.711022479568854
70173,Stuttgart,Baden-Württemberg,48.77784873637176,9.178385981501341
70174,Stuttgart,Baden-Württemberg,48.782640007266814,9.169451301843818
70176,Stuttgart,Baden-Württemberg,48.77743143738063,9.161059217462483
70178,Stuttgart,Baden-Württemberg,48.76918213784615,9.167701492076922
70180,Stuttgart,Baden-Württemberg,48.764040472784814,9.174826367025316
70182,Stuttgart,Baden-Württemberg,48.77432818067484,9.184645334151329
70184,Stuttgart,Baden-Württemberg,48.77074188514905,9.196421389485096
70186,Stuttgart,Baden-Württemberg,48.775947352358735,9.207312608553655
70188,Stuttgart,Baden-Württemberg,48.78435382978932,9.208522208378247
70190,Stuttgart,Baden-Württemberg,48.78947286763975,9.202562953602484
70191,Stuttgart,Baden-Württemberg,48.79809752643243,9.182527489027025
70192,Stuttgart,Baden-Württemberg,48.7952603761851,9.165002703837473
70193,Stuttgart,Baden-Württemberg,48.77927546457831,9.149072957734939
70195,Stuttgart,Baden-Württemberg,48.778214185,9.125211415619047
70197,Stuttgart,Baden-Württemberg,48.77081697694575,9.14939897370283
70199,Stuttgart,Baden-Württemberg,48.75967512624777,9.153519663591801
70327,Stuttgart,Baden-Württemberg,48.78163262321934,9.25093678340231
70329,Stuttgart,Baden-Württemberg,48.76318127470228,9.259026842645639
70372,Stuttgart,Baden-Württemberg,48.803971928629856,9.22207830603272
70374,Stuttgart,Baden-Württemberg,48.81065387692052,9.240338434486198
70376,Stuttgart,Baden-Württemberg,48.81614897601018,9.208672592236717
70378,Sonnenhof,Baden-Württemberg,48.834686211072,9.22922713776
70378,Stuttgart,Baden-Württemberg,48.834686211072,9.22922713776
70435,Stuttgart,Baden-Württemberg,48.831810505246004,9.169547809318997
70437,Stuttgart,Baden-Württemberg,48.835727250607455,9.194199630289067
70439,Stuttgart,Baden-Württemberg,48.84521166159644,9.154381625042824
70469,Stuttgart,Baden-Württemberg,48.81009719129503,9.154882237671528
70499,Stuttgart,Baden-Württemberg,48.81231881629802,9.108521633682578
70563,Stuttgart,Baden-Württemberg,48.73138374553931,9.107369606502015
70565,Stuttgart,Baden-Württemberg,48.718018423862276,9.116623376317365
70567,Stuttgart,Baden-Württemberg,48.72565084239048,9.150399481868828
70569,Stuttgart,Baden-Württemberg,48.743017955325776,9.109965352521247
70597,Stuttgart,Baden-Württemberg,48.744720372998835,9.169229355985998
70599,Stuttgart,Baden-Württemberg,48.712013550618735,9.207675142368887
70619,Stuttgart,Baden-Württemberg,48.743499080932004,9.221613705848787
70629,Stuttgart,Baden-Württemberg,48.69021027457627,9.196841942372881
40211,Düsseldorf,Nordrhein-Westfalen,51.22838874845705,6.791921416513762
40212,Düsseldorf,Nordrhein-Westfalen,51.22391110626087,6.781608208695651
40213,Düsseldorf,Nordrhein-Westfalen,51.224655931836274,6.7735127369528145
40215,Düsseldorf,Nordrhein-Westfalen,51.214363292150395,6.784092062862797
40217,Düsseldorf,Nordrhein-Westfalen,51.212801956402735,6.774437017399804
40219,Düsseldorf,Nordrhein-Westfalen,51.21328098226221,6.763277501713796
40221,Düsseldorf,Nordrhein-Westfalen,51.202040837441956,6.7530860316589285
40223,Düsseldorf,Nordrhein-Westfalen,51.202681088085676,6.7728557030343595
40225,Düsseldorf,Nordrhein-Westfalen,51.19844242171274,6.7873911695886715
40227,Düsseldorf,Nordrhein-Westfalen,51.21297041617647,6.802340815346908
40229,Düsseldorf,Nordrhein-Westfalen,51.19855111981645,6.837450641604351
40231,Düsseldorf,Nordrhein-Westfalen,51.21034313005618,6.833554851444623
40233,Düsseldorf,Nordrhein-Westfalen,51.224078820011535,6.807668414475202
40235,Düsseldorf,Nordrhein-Westfalen,51.23245661665206,6.822738164986854
40237,Düsseldorf,Nordrhein-Westfalen,51.23607783665292,6.807204177430761
40239,Düsseldorf,Nordrhein-Westfalen,51.24350387707363,6.802902976234856
40468,Düsseldorf,Nordrhein-Westfalen,51.267315261476966,6.775181539448769
40470,Düsseldorf,Nordrhein-Westfalen,51.25357690879895,6.810224996700396
40472,Düsseldorf,Nordrhein-Westfalen,51.27246362465031,6.807369328081287
40472,Ratingen,Nordrhein-Westfalen,51.27246362465031,6.807369328081287
40474,Düsseldorf,Nordrhein-Westfalen,51.26640824314878,6.748566959016393
40476,Düsseldorf,Nordrhein-Westfalen,51.24687974689379,6.781834324048096
40477,Düsseldorf,Nordrhein-Westfalen,51.239117093266835,6.784480476932669
40479,Düsseldorf,Nordrhein-Westfalen,51.23414859729469,6.784470529371982
40489,Düsseldorf,Nordrhein-Westfalen,51.31611610225035,6.75572768681044
40545,Düsseldorf,Nordrhein-Westfalen,51.23067649875203,6.7533657066739
40547,Düsseldorf,Nordrhein-Westfalen,51.24215619552652,6.737583728622328
40549,Düsseldorf,Nordrhein-Westfalen,51.233234664535345,6.720045896624304
40589,Düsseldorf,Nordrhein-Westfalen,51.173253309696975,6.822866915055822
40591,Düsseldorf,Nordrhein-Westfalen,51.18833399241412,6.818845265887405
40593,Düsseldorf,Nordrhein-Westfalen,51.151369260778864,6.874706021279556
40595,Düsseldorf,Nordrhein-Westfalen,51.13766111169087,6.9016471165887285
40597,Düsseldorf,Nordrhein-Westfalen,51.16453387897944,6.872943199352628
40599,Düsseldorf,Nordrhein-Westfalen,51.17874292626711,6.8672369902700705
40625,Düsseldorf,Nordrhein-Westfalen,51.232967233006086,6.853065770194385
40627,Düsseldorf,Nordrhein-Westfalen,51.20986374295302,6.869210118267618
40629,Düsseldorf,Nordrhein-Westfalen,51.25411130082825,6.866021987271142
04103,Leipzig,Sachsen,51.33506635522284,12.388460168454039
04105,Leipzig,Sachsen,51.349050654518734,12.36676643710507
04107,Leipzig,Sachsen,51.329238861503626,12.373195364130435
04109,Leipzig,Sachsen,51.3397926980039,12.369733660516067
04129,Leipzig,Sachsen,51.3677602995935,12.38730716802168
04155,Leipzig,Sachsen,51.36143892570093,12.363471798306074
04157,Leipzig,Sachsen,51.37121313938127,12.369988870986623
04158,Leipzig,Sachsen,51.39427335671072,12.357461664845815
04159,Leipzig,Sachsen,51.37689182037576,12.318169279730087
04177,Leipzig,Sachsen,51.337304311255814,12.329736893302325
04178,Leipzig,Sachsen,51.3521658417579,12.28125715877385
04179,Leipzig,Sachsen,51.34222364225477,12.313576461784288
04205,Leipzig,Sachsen,51.323313373007714,12.27375060655527
04207,Leipzig,Sachsen,51.309303389255014,12.28195583452722
04209,Leipzig,Sachsen,51.31842965285896,12.294682053240154
04229,Leipzig,Sachsen,51.32330484415329,12.33597804533246
04249,Leipzig,Sachsen,51.280531522447504,12.306926637834902
04275,Leipzig,Sachsen,51.319746195389406,12.37405566024922
04277,Leipzig,Sachsen,51.30623772722014,12.384804415107178
04279,Leipzig,Sachsen,51.29503013222222,12.393085514814816
04288,Leipzig,Sachsen,51.298421307900064,12.45752755381499
04289,Leipzig,Sachsen,51.29626716599562,12.434359422275712
04299,Leipzig,Sachsen,51.31880279699205,12.421010861861522
04315,Leipzig,Sachsen,51.34403800306065,12.40729623544797
04316,Leipzig,Sachsen,51.32695751333333,12.453421899885058
04317,Leipzig,Sachsen,51.3319643998062,12.404461355038759
04318,Leipzig,Sachsen,51.33876914230769,12.422366874377827
04319,Leipzig,Sachsen,51.339666017561164,12.492580822099447
04328,Leipzig,Sachsen,51.347609325875005,12.448765042375
04329,Leipzig,Sachsen,51.35469862012195,12.465248061062718
04347,Leipzig,Sachsen,51.35767199644028,12.418662084543325
04349,Leipzig,Sachsen,51.3821638005291,12.451488915285127
04356,Leipzig,Sachsen,51.41594187545454,12.436044137878788
04357,Leipzig,Sachsen,51.37734993745174,12.409444353453454
44135,Dortmund,Nordrhein-Westfalen,51.513756628776186,7.475295588313121
44137,Dortmund,Nordrhein-Westfalen,51.50903301788235,7.450148194823528
44139,Dortmund,Nordrhein-Westfalen,51.50316994316423,7.462760524505589
44141,Dortmund,Nordrhein-Westfalen,51.50435044105617,7.500540031074481
44143,Dortmund,Nordrhein-Westfalen,51.51613783547445,7.510923221654502
44145,Dortmund,Nordrhein-Westfalen,51.52639618963783,7.471546320623742
44147,Dortmund,Nordrhein-Westfalen,51.52451380299111,7.4494387708973315
44149,Dortmund,Nordrhein-Westfalen,51.49749472181666,7.399038157877071
44225,Dortmund,Nordrhein-Westfalen,51.47624376811842,7.44402828392464
44227,Dortmund,Nordrhein-Westfalen,51.47232804671844,7.417312918587175
44229,Dortmund,Nordrhein-Westfalen,51.456456794093874,7.461075493060859
44263,Dortmund,Nordrhein-Westfalen,51.48949346436782,7.503708160705693
44265,Dortmund,Nordrhein-Westfalen,51.45779782487624,7.490355491553217
44267,Dortmund,Nordrhein-Westfalen,51.46043902292438,7.524272863543255
44269,Dortmund,Nordrhein-Westfalen,51.485495286994535,7.529184489639345
44287,Dortmund,Nordrhein-Westfalen,51.49040758345987,7.558223430169921
44289,Dortmund,Nordrhein-Westfalen,51.48654885444235,7.591437537649654
44309,Dortmund,Nordrhein-Westfalen,51.525845153309646,7.550401510471204
44319,Dortmund,Nordrhein-Westfalen,51.5387799417789,7.600770014769869
44328,Dortmund,Nordrhein-Westfalen,51.5485474001025,7.53215917287325
44329,Dortmund,Nordrhein-Westfalen,51.56816180307065,7.5296038029347825
44339,Dortmund,Nordrhein-Westfalen,51.56170486786408,7.467493618169209
44357,Dortmund,Nordrhein-Westfalen,51.55425447386888,7.370786002708526
44359,Dortmund,Nordrhein-Westfalen,51.56881728528851,7.386923609132094
44369,Dortmund,Nordrhein-Westfalen,51.532758206597705,7.404366364758621
44379,Dortmund,Nordrhein-Westfalen,51.51327475145679,7.371000035061729
44388,Dortmund,Nordrhein-Westfalen,51.50637195533308,7.334188999576434
45127,Essen,Nordrhein-Westfalen,51.45704691291917,7.010987962230851
45128,Essen,Nordrhein-Westfalen,51.44489393001139,7.0129510191343964
45130,Essen,Nordrhein-Westfalen,51.43815461422122,7.009205706847253
45131,Essen,Nordrhein-Westfalen,51.43007429207217,7.005575053745216
45133,Essen,Nordrhein-Westfalen,51.41367099116022,6.992379101446987
45134,Essen,Nordrhein-Westfalen,51.42260582856667,7.0370626148
45136,Essen,Nordrhein-Westfalen,51.4369103319082,7.040387911662998
45138,Essen,Nordrhein-Westfalen,51.44823811306627,7.037395144477723
45139,Essen,Nordrhein-Westfalen,51.45869079869411,7.041015848832608
45141,Essen,Nordrhein-Westfalen,51.47455669841734,7.0264207162892625
45143,Essen,Nordrhein-Westfalen,51.46101652182003,6.974759546820026
45144,Essen,Nordrhein-Westfalen,51.451353580417255,6.969302180275013
45145,Essen,Nordrhein-Westfalen,51.44648217596271,6.973528634373733
45147,Essen,Nordrhein-Westfalen,51.44003225425761,6.986402855702429
45149,Essen,Nordrhein-Westfalen,51.42402871094064,6.965472237022134
45219,Essen,Nordrhein-Westfalen,51.366757016826924,6.940300449038461
45239,Essen,Nordrhein-Westfalen,51.38584681903334,7.012639419562533
45257,Essen,Nordrhein-Westfalen,51.39116973134196,7.088252669452619
45259,Essen,Nordrhein-Westfalen,51.402834311899376,7.063985797738836
45276,Essen,Nordrhein-Westfalen,51.44896143645587,7.075982361447413
45277,Essen,Nordrhein-Westfalen,51.425210334522994,7.080724001509952
45279,Essen,Nordrhein-Westfalen,51.443098020625165,7.10579280079426
45289,Essen,Nordrhein-Westfalen,51.41615944142673,7.111298059389772
45307,Essen,Nordrhein-Westfalen,51.46379492902033,7.082501953894904
45309,Essen,Nordrhein-Westfalen,51.47937275123316,7.066898063971522
45326,Essen,Nordrhein-Westfalen,51.48624049062937,7.008981056811188
45327,Essen,Nordrhein-Westfalen,51.49710018383597,7.047976837687133
45329,Essen,Nordrhein-Westfalen,51.509995315836655,7.010166415996016
45355,Essen,Nordrhein-Westfalen,51.472318140314016,6.951333981436157
45356,Essen,Nordrhein-Westfalen,51.48424275010661,6.9748172800995025
45357,Essen,Nordrhein-Westfalen,51.483938203151865,6.932741807840584
45359,Essen,Nordrhein-Westfalen,51.466986372835926,6.923928016370881
28195,Bremen,Bremen,53.07895944231961,8.806178664763168
28197,Bremen,Bremen,53.082734183087695,8.764419310611643
28199,Bremen,Bremen,53.068213632434514,8.790214125115563
28201,Bremen,Bremen,53.06142401793518,8.809533919049715
28203,Bremen,Bremen,53.073940282004045,8.826178990465587
28205,Bremen,Bremen,53.0708279975837,8.845050967540029
28207,Bremen,Bremen,53.065491823759125,8.866794990218978
28209,Bremen,Bremen,53.08569313575318,8.833240389745917
28211,Bremen,Bremen,53.082803954827476,8.852657707502374
28213,Bremen,Bremen,53.09255541805619,8.84647465665592
28215,Bremen,Bremen,53.09535429311147,8.8089461559134
28217,Bremen,Bremen,53.0939099572003,8.784612583438049
28219,Bremen,Bremen,53.10334058081468,8.789111501810408
28237,Bremen,Bremen,53.11432218823918,8.76228783095474
28239,Bremen,Bremen,53.12995604978774,8.74330556365566
28259,Bremen,Bremen,53.05100924786505,8.736178575440027
28277,Bremen,Bremen,53.03606184385965,8.820667522345337
28279,Bremen,Bremen,53.040651355982845,8.847041961363951
28307,Bremen,Bremen,53.04543988950737,8.937336417940264
28309,Bremen,Bremen,53.054860434804795,8.895880384982254
28325,Bremen,Bremen,53.06725552418054,8.946296138956127
28327,Bremen,Bremen,53.0723093231668,8.92064240499597
28329,Bremen,Bremen,53.077328292695654,8.885925469855072
28355,Bremen,Bremen,53.09363402399334,8.918735250430437
28357,Bremen,Bremen,53.11585713545889,8.894468980029659
28359,Bremen,Bremen,53.09920836676319,8.874147372554697
28717,Bremen,Bremen,53.17417869769452,8.69426215331412
28719,Bremen,Bremen,53.158251484158775,8.717282758193736
28755,Bremen,Bremen,53.18201807795311,8.61183107403066
28757,Bremen,Bremen,53.176531431012926,8.63023222696957
28759,Bremen,Bremen,53.16858458214286,8.648240729347826
28777,Bremen,Bremen,53.19378190614334,8.54206824152446
28779,Bremen,Bremen,53.19171323035971,8.573525778992806
30159,Hannover,Niedersachsen,52.37427044325902,9.737869161995754
30161,Hannover,Niedersachsen,52.384315680660606,9.744970219291528
30163,Hannover,Niedersachsen,52.395570455508725,9.745479476881396
30165,Hannover,Niedersachsen,52.39895635222552,9.723523230712166
30167,Hannover,Niedersachsen,52.38624756088311,9.719711483064934
30169,Hannover,Niedersachsen,52.366685148799995,9.735140635022221
30171,Hannover,Niedersachsen,52.3659823218018,9.755271291711711
30173,Hannover,Niedersachsen,52.359142714524296,9.762001896255061
30175,Hannover,Niedersachsen,52.37613560093937,9.758080636891545
30177,Hannover,Niedersachsen,52.39894089228419,9.769366122001527
30179,Hannover,Niedersachsen,52.41654984168698,9.758560578059482
30419,Hannover,Niedersachsen,52.410017896038866,9.681029529577728
30449,Hannover,Niedersachsen,52.364450098641655,9.714883164877103
30451,Hannover,Niedersachsen,52.3736652351176,9.706535947688565
30453,Hannover,Niedersachsen,52.374228630375,9.675164827791667
30455,Hannover,Niedersachsen,52.3607096547504,9.668258768974772
30457,Hannover,Niedersachsen,52.33258598618699,9.692488718776453
30459,Hannover,Niedersachsen,52.34200882387816,9.714323148762578
30519,Hannover,Niedersachsen,52.3384377977071,9.778737682599852
30521,Hannover,Niedersachsen,52.32101697,9.804875209999999
30539,Hannover,Niedersachsen,52.34027815287099,9.828685288913746
30559,Hannover,Niedersachsen,52.36077099573986,9.83349191510599
30625,Hannover,Niedersachsen,52.37707898805245,9.805671995968916
30627,Hannover,Niedersachsen,52.38886573995645,9.82335587833424
30629,Hannover,Niedersachsen,52.39304930052648,9.847255814214927
30655,Hannover,Niedersachsen,52.401771441574866,9.801378010852714
30657,Hannover,Niedersachsen,52.42274327561583,9.78838710240797
30659,Hannover,Niedersachsen,52.41773705171242,9.808533736909142
30669,Hannover,Niedersachsen,52.46288999,9.68485439
90402,Nürnberg,Bayern,49.44958689637378,11.080253527475593
90403,Nürnberg,Bayern,49.45504832485876,11.078231662469735
90408,Nürnberg,Bayern,49.46467587776957,11.076372226661743
90409,Nürnberg,Bayern,49.46594659648093,11.089663592961877
90411,Nürnberg,Bayern,49.48235143089431,11.105604372107567
90419,Nürnberg,Bayern,49.46151576368593,11.062406760523446
90425,Nürnberg,Bayern,49.47557784672304,11.062518336575053
90427,Nürnberg,Bayern,49.49602250010678,11.02858064719701
90429,Nürnberg,Bayern,49.45296418492918,11.050914289688384
90431,Nürnberg,Bayern,49.447948561847056,11.025596429168408
90439,Nürnberg,Bayern,49.43985932602881,11.045778706790124
90441,Nürnberg,Bayern,49.4283238330958,11.049181368883609
90443,Nürnberg,Bayern,49.44000216183486,11.067649490519878
90449,Nürnberg,Bayern,49.4227412773773,11.022413681441718
90451,Nürnberg,Bayern,49.40914011461366,11.042227145912655
90453,Nürnberg,Bayern,49.37352513822785,11.039804596540085
90455,Nürnberg,Bayern,49.36540184329345,11.079514664350777
90459,Nürnberg,Bayern,49.438516406232495,11.082096562745098
90461,Nürnberg,Bayern,49.43409326006407,11.092890374746396
90469,Nürnberg,Bayern,49.407281763237414,11.093769720647483
90471,Nürnberg,Bayern,49.41278724983571,11.122097184665936
90473,Nürnberg,Bayern,49.401499378825434,11.140387177801724
90475,Nürnberg,Bayern,49.407216917669906,11.176863380832177
90478,Nürnberg,Bayern,49.44234070015773,11.10246488675079
90480,Nürnberg,Bayern,49.4479098929866,11.126673374257946
90482,Nürnberg,Bayern,49.46365955076635,11.15447926104673
90489,Nürnberg,Bayern,49.45913206515775,11.097990213305899
90491,Nürnberg,Bayern,49.46888280992462,11.117298426727388
47051,Duisburg,Nordrhein-Westfalen,51.433012285991296,6.766112936565096
47053,Duisburg,Nordrhein-Westfalen,51.420094908078,6.757934126926648
47055,Duisburg,Nordrhein-Westfalen,51.402171274192646,6.765018582238308
47057,Duisburg,Nordrhein-Westfalen,51.42467038892866,6.788664249884939
47058,Duisburg,Nordrhein-Westfalen,51.43846766083916,6.789161871328671
47059,Duisburg,Nordrhein-Westfalen,51.43638577146254,6.738755691022593
47119,Duisburg,Nordrhein-Westfalen,51.45925318409586,6.7321420694444445
47137,Duisburg,Nordrhein-Westfalen,51.468327977417964,6.768948465328153
47138,Duisburg,Nordrhein-Westfalen,51.46898501255832,6.79866733907465
47139,Duisburg,Nordrhein-Westfalen,51.4768260092728,6.725598320238553
47166,Duisburg,Nordrhein-Westfalen,51.49199766124968,6.769691585677553
47167,Duisburg,Nordrhein-Westfalen,51.500502370697944,6.798701645721977
47169,Duisburg,Nordrhein-Westfalen,51.51201818895195,6.762224717290957
47178,Duisburg,Nordrhein-Westfalen,51.540292708822065,6.72266832609344
47179,Duisburg,Nordrhein-Westfalen,51.526921773875145,6.748184872084805
47198,Duisburg,Nordrhein-Westfalen,51.45188341647727,6.6942442843831165
47199,Duisburg,Nordrhein-Westfalen,51.492949774595466,6.6715208435275075
47226,Duisburg,Nordrhein-Westfalen,51.407093368143045,6.717564912237532
47228,Duisburg,Nordrhein-Westfalen,51.41658981570488,6.687905646410531
47229,Duisburg,Nordrhein-Westfalen,51.390154718227485,6.701641686795838
47239,Duisburg,Nordrhein-Westfalen,51.39757053697591,6.658090273416592
47249,Duisburg,Nordrhein-Westfalen,51.382496924497595,6.762113137917289
47259,Duisburg,Nordrhein-Westfalen,51.36135925403255,6.728494549005425
47269,Duisburg,Nordrhein-Westfalen,51.360141977908306,6.781830864383954
47279,Duisburg,Nordrhein-Westfalen,51.392042447217676,6.800696845744682
44787,Bochum,Nordrhein-Westfalen,51.481907590294114,7.21674011375
44789,Bochum,Nordrhein-Westfalen,51.470253352582155,7.221289250262359
44791,Bochum,Nordrhein-Westfalen,51.49057452856282,7.23979246387466
44793,Bochum,Nordrhein-Westfalen,51.483624518183994,7.185185566291328
44795,Bochum,Nordrhein-Westfalen,51.45095314537151,7.19910471364834
44797,Bochum,Nordrhein-Westfalen,51.43059982808723,7.230001623489228
44799,Bochum,Nordrhein-Westfalen,51.45404745412508,7.23395856164338
44801,Bochum,Nordrhein-Westfalen,51.45186960795876,7.261422982639176
44803,Bochum,Nordrhein-Westfalen,51.47147298186982,7.251441490224852
44805,Bochum,Nordrhein-Westfalen,51.51132983964758,7.272052089574156
44807,Bochum,Nordrhein-Westfalen,51.50682840543077,7.226395735570088
44809,Bochum,Nordrhein-Westfalen,51.49890565935706,7.199338838231917
44866,Bochum,Nordrhein-Westfalen,51.48501935607036,7.139720983571541
44867,Bochum,Nordrhein-Westfalen,51.46734545314727,7.14494504584323
44869,Bochum,Nordrhein-Westfalen,51.453192679608826,7.159871181622774
44879,Bochum,Nordrhein-Westfalen,51.42989136086813,7.161489843984155
44892,Bochum,Nordrhein-Westfalen,51.46905917114868,7.31631343167499
44894,Bochum,Nordrhein-Westfalen,51.488108066736466,7.308145285192941
42103,Wuppertal,Nordrhein-Westfalen,51.255928890363755,7.144280174282068
42105,Wuppertal,Nordrhein-Westfalen,51.26128084682243,7.139621884579439
42107,Wuppertal,Nordrhein-Westfalen,51.26420563996489,7.1543389186073725
42109,Wuppertal,Nordrhein-Westfalen,51.277243011686025,7.1486701945441755
42111,Wuppertal,Nordrhein-Westfalen,51.29138142826833,7.151664209297971
42113,Wuppertal,Nordrhein-Westfalen,51.27323772727272,7.115334346532519
42115,Wuppertal,Nordrhein-Westfalen,51.255750023968425,7.112373131754574
42117,Wuppertal,Nordrhein-Westfalen,51.24493461579718,7.128375685519258
42119,Wuppertal,Nordrhein-Westfalen,51.24522431362613,7.152449870945945
42275,Wuppertal,Nordrhein-Westfalen,51.273996589004554,7.2056311694209505
42277,Wuppertal,Nordrhein-Westfalen,51.28207771491442,7.220695918772073
42279,Wuppertal,Nordrhein-Westfalen,51.297733045727554,7.229782998266255
42281,Wuppertal,Nordrhein-Westfalen,51.28358927238775,7.192241665547629
42283,Wuppertal,Nordrhein-Westfalen,51.27186375359506,7.184541098676665
42285,Wuppertal,Nordrhein-Westfalen,51.259901520753104,7.174032185194694
42287,Wuppertal,Nordrhein-Westfalen,51.25444528529148,7.204446486143498
42289,Wuppertal,Nordrhein-Westfalen,51.26708357016026,7.218700393557691
42327,Wuppertal,Nordrhein-Westfalen,51.242931526015035,7.074768468922305
42329,Wuppertal,Nordrhein-Westfalen,51.22562328204833,7.0710663842059835
42349,Wuppertal,Nordrhein-Westfalen,51.208145914853084,7.138650425928317
42369,Wuppertal,Nordrhein-Westfalen,51.22654409482538,7.20184334774276
42389,Wuppertal,Nordrhein-Westfalen,51.27503438770834,7.246501103035714
42399,Wuppertal,Nordrhein-Westfalen,51.240732130236104,7.285899625971058
33602,Bielefeld,Nordrhein-Westfalen,52.02172802316934,8.535164404977117
33604,Bielefeld,Nordrhein-Westfalen,52.010084837068376,8.549760823256602
33605,Bielefeld,Nordrhein-Westfalen,51.99914905123843,8.581624261593554
33607,Bielefeld,Nordrhein-Westfalen,52.02234608117968,8.565939727548585
33609,Bielefeld,Nordrhein-Westfalen,52.04062841083796,8.574947838329368
33611,Bielefeld,Nordrhein-Westfalen,52.05017832861331,8.547195087510994
33613,Bielefeld,Nordrhein-Westfalen,52.04627056253138,8.520573756924685
33615,Bielefeld,Nordrhein-Westfalen,52.03237217687162,8.514774018222363
33617,Bielefeld,Nordrhein-Westfalen,52.00672401161972,8.517877809639085
33619,Bielefeld,Nordrhein-Westfalen,52.04304746177686,8.475516879797981
33647,Bielefeld,Nordrhein-Westfalen,51.9843926644326,8.508682860167555
33649,Bielefeld,Nordrhein-Westfalen,51.98556683516405,8.472082689728959
33659,Bielefeld,Nordrhein-Westfalen,51.961217937616865,8.53120548416132
33689,Bielefeld,Nordrhein-Westfalen,51.943324711950325,8.587356131270358
33699,Bielefeld,Nordrhein-Westfalen,51.99033139263658,8.626220241448932
33719,Bielefeld,Nordrhein-Westfalen,52.02378027626295,8.60682197818643
33729,Bielefeld,Nordrhein-Westfalen,52.06346317992085,8.612602889689649
33739,Bielefeld,Nordrhein-Westfalen,52.08545407092476,8.520917643307211
53111,Bonn,Nordrhein-Westfalen,50.738944870941054,7.097335778050671
53113,Bonn,Nordrhein-Westfalen,50.72382085584762,7.110200117219048
53115,Bonn,Nordrhein-Westfalen,50.72524162785185,7.090613482311111
53117,Bonn,Nordrhein-Westfalen,50.75634582229192,7.069798342967431
53119,Bonn,Nordrhein-Westfalen,50.74577997802198,7.064027817476073
53121,Bonn,Nordrhein-Westfalen,50.730471633958665,7.063905237519872
53123,Bonn,Nordrhein-Westfalen,50.71626371857415,7.0474810008462025
53125,Bonn,Nordrhein-Westfalen,50.688636063398036,7.063866320771363
53127,Bonn,Nordrhein-Westfalen,50.70406056348007,7.080573153008596
53129,Bonn,Nordrhein-Westfalen,50.71028294405144,7.111300867170417
53173,Bonn,Nordrhein-Westfalen,50.68912140220713,7.160358741553481
53175,Bonn,Nordrhein-Westfalen,50.69716633621873,7.142204519659066
53177,Bonn,Nordrhein-Westfalen,50.67256327949657,7.1545095337986275
53179,Bonn,Nordrhein-Westfalen,50.663929362610936,7.183188199083882
53225,Bonn,Nordrhein-Westfalen,50.744762209993205,7.121546330750057
53227,Bonn,Nordrhein-Westfalen,50.72314784672855,7.152905505275074
53229,Bonn,Nordrhein-Westfalen,50.74583575474659,7.162895663816099
48143,Münster,Nordrhein-Westfalen,51.961813307645784,7.626603297408207
48145,Münster,Nordrhein-Westfalen,51.964717461634585,7.651656163694698
48147,Münster,Nordrhein-Westfalen,51.97495980700682,7.635057911074536
48149,Münster,Nordrhein-Westfalen,51.96570779585536,7.600203094047289
48151,Münster,Nordrhein-Westfalen,51.9438871772647,7.612754334166037
48153,Münster,Nordrhein-Westfalen,51.93692095970492,7.62222341557377
48155,Münster,Nordrhein-Westfalen,51.953217046179965,7.663816295208451
48157,Münster,Nordrhein-Westfalen,51.99609154333614,7.680438606807077
48159,Münster,Nordrhein-Westfalen,52.001275300721296,7.60483070452815
48161,Münster,Nordrhein-Westfalen,51.96850449895059,7.55414396420347
48163,Münster,Nordrhein-Westfalen,51.91541547164996,7.57293407168034
48165,Münster,Nordrhein-Westfalen,51.905092855836514,7.64386274350191
48167,Münster,Nordrhein-Westfalen,51.92163708057975,7.6985106348121946
achsen
01169,51.0435141,13.6665673,Dresden,Sachsen
01187,51.0284267,13.7072904,Dresden,Sachsen
01189,51.0151683,13.7014065,Dresden,Sachsen
01217,51.020033,13.746051,Dresden,Sachsen
01219,51.0188919,13.7651133,Dresden,Sachsen
01237,51.0174125,13.7959173,Dresden,Sachsen
01239,50.9996217,13.7903653,Dresden,Sachsen
01257,51.0005427,13.8159083,Dresden,Sachsen
01259,50.9994427,13.846052,Dresden,Sachsen
01277,51.0373345,13.7988088,Dresden,Sachsen
01279,51.0255655,13.8282764,Dresden,Sachsen
01307,51.0527362,13.7694427,Dresden,Sachsen
01309,51.0472251,13.7884767,Dresden,Sachsen
01324,51.0609174,13.8417591,Dresden,Sachsen
01326,51.0376032,13.8425727,Dresden,Sachsen
01328,51.0455787,13.8837679,Dresden,Sachsen